ONEWEB-0271             
1 48989U 21060Y   26082.21827523  .00000036  00000+0  60870-4 0  9998
2 48989  87.9021 245.8644 0001991 101.4340 258.7015 13.16592452228359
ONEWEB-0272             
1 48990U 21060Z   26082.16446116 -.00000049  00000+0 -16119-3 0  9991
2 48990  87.9018 245.8861 0001728 108.1901 251.9418 13.16595300228293
ONEWEB-0273             
1 48991U 21060AA  26082.18662598 -.00000048  00000+0 -16000-3 0  9996
2 48991  87.9019 245.8799 0001894  98.7459 261.3886 13.16593761228272
ONEWEB-0274             
1 48992U 21060AB  26081.83197344  .00000111  00000+0  25681-3 0  9994
2 48992  87.9007 245.9626 0001611 109.6226 250.5079 13.16594411228267
ONEWEB-0275             
1 48993U 21060AC  26082.20087354  .00000091  00000+0  20397-3 0  9992
2 48993  87.9016 245.8695 0001735 101.3618 258.7708 13.16594344228246
ONEWEB-0276             
1 48994U 21060AD  26082.15812475  .00000063  00000+0  13148-3 0  9992
2 48994  87.9021 245.8782 0001849  94.0515 266.0828 13.16595361228256
ONEWEB-0277             
1 48995U 21060AE  26082.17077339 -.00000282  00000+0 -77203-3 0  9994
2 48995  87.9007 245.8897 0001890  99.4729 260.6616 13.16593500228247
ONEWEB-0278             
1 48996U 21060AF  26082.16128396 -.00000013  00000+0 -66499-4 0  9992
2 48996  87.9023 245.8748 0001631  90.2589 269.8728 13.16595037228373
ONEWEB-0279             
1 48997U 21060AG  26082.16921066 -.00000088  00000+0 -26428-3 0  9997
2 48997  87.9021 245.8723 0001923 104.6409 255.4935 13.16594043228300
ONEWEB-0280             
1 48998U 21060AH  26082.18424825 -.00000109  00000+0 -31857-3 0  9997
2 48998  87.9019 245.8741 0002022  90.6833 269.4530 13.16594381228248
ONEWEB-0281             
1 48999U 21060AJ  26082.18979231  .00000002  00000+0 -28226-4 0  9992
2 48999  87.9017 245.8673 0001627 101.5015 258.6299 13.16594144228312
ONEWEB-0282             
1 49000U 21060AK  26081.99188003  .00000004  00000+0 -22440-4 0  9997
2 49000  87.9019 245.9171 0001878  98.7422 261.3922 13.16594874228267
ONEWEB-0283             
1 49001U 21060AL  26081.98079748  .00000107  00000+0  24498-3 0  9999
2 49001  87.9018 245.9194 0001848 102.1453 257.9885 13.16594279228272
ONEWEB-0284             
1 49002U 21060AM  26082.20246131  .00000133  00000+0  31463-3 0  9997
2 49002  87.9019 245.8667 0001852  87.9160 272.2183 13.16594917228289
ONEWEB-0285             
1 49075U 21075A   26082.06474358 -.00000075  00000+0 -24312-3 0  9993
2 49075  87.9015   7.7574 0001865  78.3531 281.7806 13.12444277223918
ONEWEB-0286             
1 49076U 21075B   26082.19928576 -.00000333  00000+0 -96069-3 0  9999
2 49076  87.9007   7.7558 0001610  75.3006 284.8301 13.12444405223281
ONEWEB-0287             
1 49077U 21075C   26082.20691773  .00000016  00000+0  90861-5 0  9990
2 49077  87.9169  22.9396 0001567  67.4308 292.6989 13.17649117222301
ONEWEB-0288             
1 49078U 21075D   26082.17572307  .00000324  00000+0  86647-3 0  9995
2 49078  87.9012   7.7299 0001832  74.4989 285.6341 13.12442596223908
ONEWEB-0289             
1 49079U 21075E   26082.09371607  .00000021  00000+0  19698-4 0  9994
2 49079  87.9176  22.9746 0002255  74.5047 285.6334 13.17648634222864
ONEWEB-0290             
1 49080U 21075F   26082.06686131  .00000060  00000+0  12025-3 0  9993
2 49080  87.9180  22.9491 0002427  78.0191 282.1212 13.17650349222276
ONEWEB-0291             
1 49081U 21075G   26081.82386535  .00000074  00000+0  15744-3 0  9998
2 49081  87.9176  23.0057 0001872  66.7871 293.3458 13.17649523222238
ONEWEB-0293             
1 49082U 21075H   26082.22885642  .00000119  00000+0  27450-3 0  9994
2 49082  87.9173  22.9349 0001981  76.3172 283.8181 13.17650195222313
ONEWEB-0294             
1 49083U 21075J   26082.18250100  .00000118  00000+0  29377-3 0  9994
2 49083  87.9015   7.7311 0002122  73.9495 286.1868 13.12442220223297
ONEWEB-0295             
1 49084U 21075K   26082.22800493  .00000089  00000+0  19527-3 0  9999
2 49084  87.9169  22.9397 0001776  67.9801 292.1519 13.17651178222275
ONEWEB-0296             
1 49085U 21075L   26082.23840103  .00000495  00000+0  13414-2 0  9992
2 49085  87.9019   7.7240 0001788  66.4759 293.6558 13.12443924223304
ONEWEB-0297             
1 49086U 21075M   26082.19265715 -.00000239  00000+0 -69875-3 0  9999
2 49086  87.9002   7.7559 0001724  74.9537 285.1782 13.12443322223901
ONEWEB-0298             
1 49087U 21075N   26082.23236812  .00000066  00000+0  13745-3 0  9992
2 49087  87.9172  22.9356 0001723  81.0121 279.1205 13.17649121222307
ONEWEB-0299             
1 49088U 21075P   26082.23391578  .00000053  00000+0  10230-3 0  9996
2 49088  87.9179  22.9076 0001742  74.8828 285.2496 13.17648973222280
ONEWEB-0300             
1 49089U 21075Q   26082.18502340 -.00000013  00000+0 -70343-4 0  9992
2 49089  87.9015   7.7272 0001524  87.1793 272.9510 13.12443490223929
ONEWEB-0301             
1 49090U 21075R   26082.16893466  .00000407  00000+0  10954-2 0  9999
2 49090  87.9013   7.7307 0001646  89.2695 270.8623 13.12441292223286
ONEWEB-0302             
1 49091U 21075S   26082.23162188  .00000398  00000+0  10707-2 0  9993
2 49091  87.9019   7.7273 0002039  71.4410 288.6940 13.12444706223271
ONEWEB-0304             
1 49092U 21075T   26082.20860009  .00000097  00000+0  21719-3 0  9990
2 49092  87.9178  22.9423 0001779  74.2751 285.8576 13.17650490222258
ONEWEB-0305             
1 49093U 21075U   26081.82217408  .00000070  00000+0  14791-3 0  9990
2 49093  87.9175  22.9978 0001633  67.7021 292.4284 13.17650758222232
ONEWEB-0308             
1 49094U 21075V   26082.22484357  .00000144  00000+0  36507-3 0  9996
2 49094  87.9016   7.7213 0001822  78.8426 281.2908 13.12444787223285
ONEWEB-0309             
1 49095U 21075W   26082.20523477  .00000028  00000+0  39965-4 0  9995
2 49095  87.9179  22.9367 0002167  70.9854 289.1512 13.17649466222256
ONEWEB-0310             
1 49096U 21075X   26082.16385511  .00000460  00000+0  12437-2 0  9999
2 49096  87.9007   7.7631 0001858  78.4093 281.7244 13.12441301223902
ONEWEB-0311             
1 49097U 21075Y   26082.21196200  .00000118  00000+0  27073-3 0  9994
2 49097  87.9181  22.9300 0001474  70.1150 290.0141 13.17652897222306
ONEWEB-0312             
1 49098U 21075Z   26082.22717270  .00000055  00000+0  10945-3 0  9992
2 49098  87.9169  22.9439 0001844  67.7919 292.3408 13.17648953222288
ONEWEB-0313             
1 49099U 21075AA  26082.23209965  .00000048  00000+0  90079-4 0  9990
2 49099  87.9174  22.9489 0001770  75.8037 284.3291 13.17649981222271
ONEWEB-0314             
1 49100U 21075AB  26082.19848222  .00000011  00000+0 -40456-5 0  9999
2 49100  87.9178  22.9197 0001809  66.5446 293.5876 13.17648916222243
ONEWEB-0315             
1 49101U 21075AC  26082.21298136 -.00000152  00000+0 -45746-3 0  9998
2 49101  87.9016   7.7102 0001409  75.3723 284.7561 13.12444551223893
ONEWEB-0316             
1 49102U 21075AD  26082.19080086  .00000030  00000+0  43578-4 0  9994
2 49102  87.9239 352.5483 0001712  77.9630 282.1694 13.18686422225876
ONEWEB-0317             
1 49103U 21075AE  26082.06389686 -.00000068  00000+0 -22485-3 0  9995
2 49103  87.9019   7.7623 0002567  80.5998 279.5421 13.12445336223893
ONEWEB-0318             
1 49104U 21075AF  26082.18750680  .00000063  00000+0  12584-3 0  9997
2 49104  87.9249 352.5428 0001506  76.1693 283.9607 13.18686831225832
ONEWEB-0319             
1 49105U 21075AG  26082.21366723  .00000043  00000+0  77371-4 0  9997
2 49105  87.9171  22.9407 0001298  76.3631 283.7645 13.17650682222284
ONEWEB-0323             
1 49106U 21075AH  26082.19777767 -.00003767  00000+0 -10515-1 0  9991
2 49106  87.9021   7.7164 0001331  62.6006 297.5258 13.12412138223272
ONEWEB-0329             
1 49107U 21075AJ  26082.07023756 -.00000030  00000+0 -11002-3 0  9995
2 49107  87.9171  22.9694 0001809  73.6440 286.4890 13.17648833222243
ONEWEB-0330             
1 49108U 21075AK  26082.08809492 -.00000060  00000+0 -19078-3 0  9990
2 49108  87.9174  22.9812 0001998  71.9700 288.1649 13.16080353222289
ONEWEB-0292             
1 49186U 21083A   26082.23722494  .00000369  00000+0  97580-3 0  9992
2 49186  87.9011 337.3536 0001513  77.8768 282.2531 13.13468490219643
ONEWEB-0303             
1 49187U 21083B   26082.18421000  .00000093  00000+0  20412-3 0  9990
2 49187  87.9249 352.5463 0001616  76.0189 284.1123 13.18687149218643
ONEWEB-0306             
1 49188U 21083C   26082.17431274  .00000116  00000+0  26262-3 0  9999
2 49188  87.9251 352.5315 0002020  79.7451 280.3909 13.18687108218684
ONEWEB-0307             
1 49189U 21083D   26082.23129373  .00001079  00000+0  29202-2 0  9996
2 49189  87.9010 337.3434 0001711  77.3583 282.7737 13.13477454219645
ONEWEB-0320             
1 49190U 21083E   26082.19426377  .00000066  00000+0  13512-3 0  9990
2 49190  87.9237 352.5547 0001770  76.9420 283.1909 13.18133743218642
ONEWEB-0321             
1 49191U 21083F   26082.14121319  .00000086  00000+0  18032-3 0  9998
2 49191  87.9150 291.6170 0002014  88.4397 271.6967 13.20771332225475
ONEWEB-0322             
1 49192U 21083G   26082.22706972  .00000372  00000+0  98453-3 0  9995
2 49192  87.9011 337.3493 0002070  89.8033 270.3334 13.13471478219637
ONEWEB-0324             
1 49193U 21083H   26082.16771486  .00000248  00000+0  59666-3 0  9996
2 49193  87.9249 352.5386 0001880  74.0591 286.0748 13.18688052218662
ONEWEB-0325             
1 49194U 21083J   26082.17101586  .00000123  00000+0  27936-3 0  9993
2 49194  87.9241 352.5539 0001777  80.5721 279.5612 13.18687968218670
ONEWEB-0326             
1 49195U 21083K   26082.18599587  .00000113  00000+0  25351-3 0  9995
2 49195  87.9248 352.5414 0001489  78.8555 281.2744 13.18686576218664
ONEWEB-0327             
1 49196U 21083L   26082.18571555  .00000073  00000+0  15337-3 0  9999
2 49196  87.9240 352.5528 0001368  83.8220 276.3068 13.18685629218688
